H1 CPF 01  gfz 2021 09 13 12  7562 terrasarx 
H2 0702601  6201 31698    2021 09 13 12 59 42 2021 09 18 00 00 42   120 1 1  0 0 0
H9
10 0 59472  56142.000000  0   -1937469.788  -2428345.728   6137917.568
10 0 59472  56262.000000  0   -2635380.433  -2829689.460   5690768.796
10 0 59472  56382.000000  0   -3293757.615  -3169748.849   5143534.886
10 0 59472  56502.000000  0   -3899963.838  -3443366.631   4505805.640
10 0 59472  56622.000000  0   -4442188.421  -3646757.506   3788772.077
10 0 59472  56742.000000  0   -4909682.617  -3777561.555   3005033.183
10 0 59472  56862.000000  0   -5292978.743  -3834869.526   2168376.290
10 0 59472  56982.000000  0   -5584088.508  -3819219.273   1293532.023
10 0 59472  57102.000000  0   -5776673.336  -3732561.312    395909.022
10 0 59472  57222.000000  0   -5866183.273  -3578195.051   -508684.882
10 0 59472  57342.000000  0   -5849960.752  -3360677.648  -1404330.259
10 0 59472  57462.000000  0   -5727305.048  -3085706.501  -2275286.406
10 0 59472  57582.000000  0   -5499495.963  -2759979.264  -3106274.811
10 0 59472  57702.000000  0   -5169778.551  -2391036.328  -3882751.211
10 0 59472  57822.000000  0   -4743309.062  -1987089.095  -4591160.578
10 0 59472  57942.000000  0   -4227064.592  -1556839.243  -5219170.766
10 0 59472  58062.000000  0   -3629718.616  -1109292.644  -5755881.135
10 0 59472  58182.000000  0   -2961485.998   -653572.293  -6192002.016
10 0 59472  58302.000000  0   -2233942.024   -198734.808  -6520004.115
10 0 59472  58422.000000  0   -1459818.254    246405.801  -6734236.936
10 0 59472  58542.000000  0    -652780.183    673443.798  -6831014.835
10 0 59472  58662.000000  0     172809.369   1074536.144  -6808673.368
10 0 59472  58782.000000  0    1002138.870   1442542.200  -6667594.562
10 0 59472  58902.000000  0    1820207.583   1771147.755  -6410203.769
10 0 59472  59022.000000  0    2612091.725   2054972.475  -6040932.343
10 0 59472  59142.000000  0    3363212.879   2289657.558  -5566148.799
10 0 59472  59262.000000  0    4059603.350   2471932.826  -4994059.077
10 0 59472  59382.000000  0    4688167.551   2599663.083  -4334577.048
10 0 59472  59502.000000  0    5236933.531   2671871.900  -3599162.759
10 0 59472  59622.000000  0    5695287.553   2688741.940  -2800631.537
10 0 59472  59742.000000  0    6054189.232   2651592.209  -1952937.505
10 0 59472  59862.000000  0    6306360.486   2562831.285  -1070930.337
10 0 59472  59982.000000  0    6446441.687   2425887.272   -170093.200
10 0 59472  60102.000000  0    6471112.146   2245115.921    733735.421
10 0 59472  60222.000000  0    6379168.438   2025688.360   1624646.995
10 0 59472  60342.000000  0    6171563.867   1773463.856   2486950.764
10 0 59472  60462.000000  0    5851402.688   1494847.428   3305459.901
10 0 59472  60582.000000  0    5423890.641   1196637.718   4065766.303
10 0 59472  60702.000000  0    4896242.355    885868.776   4754499.049
10 0 59472  60822.000000  0    4277551.140    569650.721   5359560.183
10 0 59472  60942.000000  0    3578622.855    255011.551   5870337.001
10 0 59472  61062.000000  0    2811776.793    -51255.236   6277883.699
10 0 59472  61182.000000  0    1990622.126   -342732.863   6575071.141
10 0 59472  61302.000000  0    1129812.638   -613512.482   6756706.445
10 0 59472  61422.000000  0     244781.907   -858311.212   6819619.310
10 0 59472  61542.000000  0    -648534.548  -1072573.877   6762712.697
10 0 59472  61662.000000  0   -1533985.395  -1252557.638   6586979.996
10 0 59472  61782.000000  0   -2395494.047  -1395397.313   6295487.746
10 0 59472  61902.000000  0   -3217348.451  -1499150.193   5893325.924
10 0 59472  62022.000000  0   -3984489.653  -1562821.324   5387527.112
10 0 59472  62142.000000  0   -4682793.089  -1586369.123   4786949.581
10 0 59472  62262.000000  0   -5299335.623  -1570689.588   4102127.098
10 0 59472  62382.000000  0   -5822642.530  -1517579.178   3345087.013
10 0 59472  62502.000000  0   -6242909.128  -1429677.329   2529141.130
10 0 59472  62622.000000  0   -6552194.802  -1310390.830   1668652.292
10 0 59472  62742.000000  0   -6744583.274  -1163800.830    778776.352
10 0 59472  62862.000000  0   -6816301.129   -994554.132   -124812.548
10 0 59472  62982.000000  0   -6765793.793   -807742.057  -1026206.795
10 0 59472  63102.000000  0   -6593756.448   -608770.100  -1909554.574
10 0 59472  63222.000000  0   -6303119.478   -403221.836  -2759345.624
10 0 59472  63342.000000  0   -5898991.165   -196721.462  -3560689.602
10 0 59472  63462.000000  0   -5388555.786      5203.621  -4299580.743
10 0 59472  63582.000000  0   -4780932.133    197255.554  -4963140.926
10 0 59472  63702.000000  0   -4086998.135    374491.054  -5539838.825
10 0 59472  63822.000000  0   -3319184.827    532435.335  -6019682.073
10 0 59472  63942.000000  0   -2491245.184    667182.607  -6394378.591
10 0 59472  64062.000000  0   -1618004.855    775482.126  -6657467.843
10 0 59472  64182.000000  0    -715096.511    854808.382  -6804421.928
10 0 59472  64302.000000  0     201315.988    903414.417  -6832713.556
10 0 59472  64422.000000  0    1114818.758    920366.937  -6741854.899
10 0 59472  64542.000000  0    2009035.304    905563.431  -6533407.778
10 0 59472  64662.000000  0    2867914.479    859731.223  -6210959.581
10 0 59472  64782.000000  0    3676014.165    784408.262  -5780067.420
10 0 59472  64902.000000  0    4418775.889    681905.158  -5248171.497
10 0 59472  65022.000000  0    5082788.454    555249.682  -4624478.513
10 0 59472  65142.000000  0    5656036.229    408114.754  -3919813.363
10 0 59472  65262.000000  0    6128125.082    244730.188  -3146440.419
10 0 59472  65382.000000  0    6490481.935     69780.563  -2317857.747
10 0 59472  65502.000000  0    6736524.240   -111709.262  -1448565.156
10 0 59472  65622.000000  0    6861791.735   -294498.117   -553809.095
10 0 59472  65742.000000  0    6864037.345   -473258.603    350688.465
10 0 59472  65862.000000  0    6743275.573   -642711.094   1249012.885
10 0 59472  65982.000000  0    6501785.111   -797757.624   2125345.301
10 0 59472  66102.000000  0    6144065.931   -933612.098   2964251.128
10 0 59472  66222.000000  0    5676749.530  -1045923.392   3750959.767
10 0 59472  66342.000000  0    5108469.178  -1130888.122   4471629.638
10 0 59472  66462.000000  0    4449690.896  -1185351.481   5113595.088
10 0 59472  66582.000000  0    3712510.291  -1206891.326   5665588.438
10 0 59472  66702.000000  0    2910421.283  -1193885.144   6117934.971
10 0 59472  66822.000000  0    2058061.338  -1145559.311   6462717.153
10 0 59472  66942.000000  0    1170939.673  -1062019.190   6693907.827
10 0 59472  67062.000000  0     265150.994   -944259.152   6807470.227
10 0 59472  67182.000000  0    -642917.759   -794152.260   6801422.834
10 0 59472  67302.000000  0   -1536882.751   -614420.709   6675870.778
10 0 59472  67422.000000  0   -2400657.298   -408586.619   6433003.937
10 0 59472  67542.000000  0   -3218740.063   -180904.137   6077061.836
10 0 59472  67662.000000  0   -3976494.583     63726.126   5614265.434
10 0 59472  67782.000000  0   -4660415.541    319858.910   5052714.718
10 0 59472  67902.000000  0   -5258375.999    581620.447   4402252.678
10 0 59472  68022.000000  0   -5759851.078    842837.152   3674297.159
10 0 59472  68142.000000  0   -6156111.977   1097174.263   2881643.025
10 0 59472  68262.000000  0   -6440387.787   1338281.396   2038237.806
10 0 59472  68382.000000  0   -6607990.140   1559941.097   1158933.578
10 0 59472  68502.000000  0   -6656397.921   1756217.493    259219.485
10 0 59472  68622.000000  0   -6585297.335   1921600.833   -645059.969
10 0 59472  68742.000000  0   -6396576.809   2051143.411  -1537992.968
10 0 59472  68862.000000  0   -6094278.328   2140584.395  -2403888.391
10 0 59472  68982.000000  0   -5684505.852   2186460.685  -3227559.366
10 0 59472  69102.000000  0   -5175291.993   2186199.898  -3994594.522
10 0 59472  69222.000000  0   -4576428.780   2138193.284  -4691610.192
10 0 59472  69342.000000  0   -3899267.796   2041847.940  -5306479.792
10 0 59472  69462.000000  0   -3156495.383   1897617.630  -5828536.521
10 0 59472  69582.000000  0   -2361889.093   1707011.979  -6248748.410
10 0 59472  69702.000000  0   -1530058.093   1472583.822  -6559864.239
10 0 59472  69822.000000  0    -676173.931   1197895.112  -6756526.119
10 0 59472  69942.000000  0     184302.003    887462.489  -6835351.403
10 0 59472  70062.000000  0    1035890.976    546684.362  -6794984.497
10 0 59472  70182.000000  0    1863369.404    181748.951  -6636119.893
10 0 59472  70302.000000  0    2652035.296   -200475.482  -6361490.547
10 0 59472  70422.000000  0    3387964.668   -592565.753  -5975826.445
10 0 59472  70542.000000  0    4058254.909   -986683.380  -5485780.388
10 0 59472  70662.000000  0    4651251.141  -1374726.181  -4899824.799
10 0 59472  70782.000000  0    5156754.318  -1748491.225  -4228117.114
10 0 59472  70902.000000  0    5566204.550  -2099844.508  -3482334.049
10 0 59472  71022.000000  0    5872836.456  -2420894.356  -2675476.848
10 0 59472  71142.000000  0    6071802.117  -2704165.054  -1821649.161
10 0 59472  71262.000000  0    6160257.637  -2942766.157   -935811.573
10 0 59472  71382.000000  0    6137411.589  -3130553.457    -33517.365
10 0 59472  71502.000000  0    6004532.720  -3262277.500    869365.999
10 0 59472  71622.000000  0    5764917.295  -3333715.789   1756943.817
10 0 59472  71742.000000  0    5423813.390  -3341784.110   2613584.337
10 0 59472  71862.000000  0    4988305.620  -3284624.533   3424201.837
10 0 59472  71982.000000  0    4467164.351  -3161667.136   4174528.983
10 0 59472  72102.000000  0    3870664.159  -2973665.281   4851371.263
10 0 59472  72222.000000  0    3210373.936  -2722704.319   5442841.582
10 0 59472  72342.000000  0    2498924.360  -2412181.185   5938566.866
10 0 59472  72462.000000  0    1749760.383  -2046757.686   6329865.555
10 0 59472  72582.000000  0     976882.671  -1632288.755   6609893.973
99
